ONEWEB-0012             
1 44057U 19010A   25190.35489788  .00000093  00000+0  21053-3 0  9995
2 44057  87.9054 297.1355 0002122 115.4810 244.6540 13.16596147306450
ONEWEB-0010             
1 44058U 19010B   25190.38022770 -.00000037  00000+0 -13059-3 0  9990
2 44058  87.9055 297.1138 0002345  94.1424 265.9975 13.16593395306508
ONEWEB-0008             
1 44059U 19010C   25190.55754498 -.00000012  00000+0 -64847-4 0  9994
2 44059  87.9052 297.0770 0001769  98.6055 261.5276 13.16595489306642
ONEWEB-0007             
1 44060U 19010D   25190.62472660  .00000010  00000+0 -63611-5 0  9998
2 44060  87.9079 327.5263 0002204 101.8694 258.2684 13.15548728306335
ONEWEB-0006             
1 44061U 19010E   25190.62867307 -.00000142  00000+0 -41066-3 0  9990
2 44061  87.9065 327.4707 0002159  97.4923 262.6453 13.15549914306383
ONEWEB-0011             
1 44062U 19010F   25190.82517357  .00000136  00000+0  32622-3 0  9999
2 44062  87.9069 327.4414 0001876  90.5444 269.5901 13.15549110306438
ONEWEB-0013             
1 45131U 20008A   25190.53985392 -.00000476  00000+0 -14200-2 0  9992
2 45131  87.8573 121.9945 0001742 108.0961 252.0356 13.09430098261227
ONEWEB-0017             
1 45132U 20008B   25190.84177206  .00000099  00000+0  24754-3 0  9999
2 45132  87.8821 104.5513 0002139  73.1937 286.9425 13.10369143263889
